ORBCOMM-X [-]           
1 21576U 91050C   24054.13800301  .00000422  00000+0  14076-3 0  9995
2 21576  98.4033 123.1672 0003634 178.9322 181.1876 14.42375738712893
ORBCOMM FM01 [-]        
1 23545U 95017A   24054.61606766  .00006666  00000+0  91797-3 0  9993
2 23545  69.9685 178.8914 0007706 309.5242  50.5225 14.78643528541352
ORBCOMM FM02 [-]        
1 23546U 95017B   24054.55574745  .00006964  00000+0  96810-3 0  9990
2 23546  69.9693 198.3218 0009495 307.3434  52.6849 14.78208169540994
ORBCOMM FM08 [-]        
1 25112U 97084A   24054.37089786  .00001891  00000+0  61356-3 0  9994
2 25112  45.0140 144.2892 0006991 331.0051  29.0410 14.42052739372022
ORBCOMM FM10 [-]        
1 25113U 97084B   24054.51208755  .00001878  00000+0  61066-3 0  9993
2 25113  45.0153 145.4151 0005756 298.4216  61.6054 14.41980226547193
ORBCOMM FM11 [+]        
1 25114U 97084C   24054.52452613  .00001907  00000+0  62069-3 0  9996
2 25114  45.0139 145.3644 0006498 300.8568  59.1643 14.41867643372162
ORBCOMM FM12 [-]        
1 25115U 97084D   24054.55185034  .00002089  00000+0  67626-3 0  9996
2 25115  45.0145 144.9053 0005521 298.9926  61.0370 14.41841861371960
ORBCOMM FM09 [-]        
1 25116U 97084E   24054.56137931  .00002143  00000+0  69292-3 0  9993
2 25116  45.0147 145.5247 0006979 289.5760  70.4336 14.41808123372179
