<?xml version="1.0" encoding="UTF-8"?>
<ndm xmlns:xsi="http://www.w3.org/2001/XMLSchema-instance" xsi:noNamespaceSchemaLocation="https://sanaregistry.org/r/ndmxml_unqualified/ndmxml-2.0.0-master-2.0.xsd">
<omm id="CCSDS_OMM_VERS" version="2.0">
<header><CREATION_DATE/><ORIGINATOR/></header><body><segment><metadata><OBJECT_NAME>ORBCOMM-X [-]</OBJECT_NAME><OBJECT_ID>1991-050C</OBJECT_ID><CENTER_NAME>EARTH</CENTER_NAME><REF_FRAME>TEME</REF_FRAME><TIME_SYSTEM>UTC</TIME_SYSTEM><MEAN_ELEMENT_THEORY>SGP4</MEAN_ELEMENT_THEORY></metadata><data><meanElements><EPOCH>2024-02-23T03:18:43.460064</EPOCH><MEAN_MOTION>14.42375738</MEAN_MOTION><ECCENTRICITY>.0003634</ECCENTRICITY><INCLINATION>98.4033</INCLINATION><RA_OF_ASC_NODE>123.1672</RA_OF_ASC_NODE><ARG_OF_PERICENTER>178.9322</ARG_OF_PERICENTER><MEAN_ANOMALY>181.1876</MEAN_ANOMALY></meanElements><tleParameters><EPHEMERIS_TYPE>0</EPHEMERIS_TYPE><CLASSIFICATION_TYPE>U</CLASSIFICATION_TYPE><NORAD_CAT_ID>21576</NORAD_CAT_ID><ELEMENT_SET_NO>999</ELEMENT_SET_NO><REV_AT_EPOCH>71289</REV_AT_EPOCH><BSTAR>.14076E-3</BSTAR><MEAN_MOTION_DOT>.422E-5</MEAN_MOTION_DOT><MEAN_MOTION_DDOT>0</MEAN_MOTION_DDOT></tleParameters></data></segment></body></omm>
<omm id="CCSDS_OMM_VERS" version="2.0">
<header><CREATION_DATE/><ORIGINATOR/></header><body><segment><metadata><OBJECT_NAME>ORBCOMM FM01 [-]</OBJECT_NAME><OBJECT_ID>1995-017A</OBJECT_ID><CENTER_NAME>EARTH</CENTER_NAME><REF_FRAME>TEME</REF_FRAME><TIME_SYSTEM>UTC</TIME_SYSTEM><MEAN_ELEMENT_THEORY>SGP4</MEAN_ELEMENT_THEORY></metadata><data><meanElements><EPOCH>2024-02-23T14:47:08.245824</EPOCH><MEAN_MOTION>14.78643528</MEAN_MOTION><ECCENTRICITY>.0007706</ECCENTRICITY><INCLINATION>69.9685</INCLINATION><RA_OF_ASC_NODE>178.8914</RA_OF_ASC_NODE><ARG_OF_PERICENTER>309.5242</ARG_OF_PERICENTER><MEAN_ANOMALY>50.5225</MEAN_ANOMALY></meanElements><tleParameters><EPHEMERIS_TYPE>0</EPHEMERIS_TYPE><CLASSIFICATION_TYPE>U</CLASSIFICATION_TYPE><NORAD_CAT_ID>23545</NORAD_CAT_ID><ELEMENT_SET_NO>999</ELEMENT_SET_NO><REV_AT_EPOCH>54135</REV_AT_EPOCH><BSTAR>.91797E-3</BSTAR><MEAN_MOTION_DOT>.6666E-4</MEAN_MOTION_DOT><MEAN_MOTION_DDOT>0</MEAN_MOTION_DDOT></tleParameters></data></segment></body></omm>
<omm id="CCSDS_OMM_VERS" version="2.0">
<header><CREATION_DATE/><ORIGINATOR/></header><body><segment><metadata><OBJECT_NAME>ORBCOMM FM02 [-]</OBJECT_NAME><OBJECT_ID>1995-017B</OBJECT_ID><CENTER_NAME>EARTH</CENTER_NAME><REF_FRAME>TEME</REF_FRAME><TIME_SYSTEM>UTC</TIME_SYSTEM><MEAN_ELEMENT_THEORY>SGP4</MEAN_ELEMENT_THEORY></metadata><data><meanElements><EPOCH>2024-02-23T13:20:16.579680</EPOCH><MEAN_MOTION>14.78208169</MEAN_MOTION><ECCENTRICITY>.0009495</ECCENTRICITY><INCLINATION>69.9693</INCLINATION><RA_OF_ASC_NODE>198.3218</RA_OF_ASC_NODE><ARG_OF_PERICENTER>307.3434</ARG_OF_PERICENTER><MEAN_ANOMALY>52.6849</MEAN_ANOMALY></meanElements><tleParameters><EPHEMERIS_TYPE>0</EPHEMERIS_TYPE><CLASSIFICATION_TYPE>U</CLASSIFICATION_TYPE><NORAD_CAT_ID>23546</NORAD_CAT_ID><ELEMENT_SET_NO>999</ELEMENT_SET_NO><REV_AT_EPOCH>54099</REV_AT_EPOCH><BSTAR>.9681E-3</BSTAR><MEAN_MOTION_DOT>.6964E-4</MEAN_MOTION_DOT><MEAN_MOTION_DDOT>0</MEAN_MOTION_DDOT></tleParameters></data></segment></body></omm>
<omm id="CCSDS_OMM_VERS" version="2.0">
<header><CREATION_DATE/><ORIGINATOR/></header><body><segment><metadata><OBJECT_NAME>ORBCOMM FM08 [-]</OBJECT_NAME><OBJECT_ID>1997-084A</OBJECT_ID><CENTER_NAME>EARTH</CENTER_NAME><REF_FRAME>TEME</REF_FRAME><TIME_SYSTEM>UTC</TIME_SYSTEM><MEAN_ELEMENT_THEORY>SGP4</MEAN_ELEMENT_THEORY></metadata><data><meanElements><EPOCH>2024-02-23T08:54:05.575104</EPOCH><MEAN_MOTION>14.42052739</MEAN_MOTION><ECCENTRICITY>.0006991</ECCENTRICITY><INCLINATION>45.0140</INCLINATION><RA_OF_ASC_NODE>144.2892</RA_OF_ASC_NODE><ARG_OF_PERICENTER>331.0051</ARG_OF_PERICENTER><MEAN_ANOMALY>29.0410</MEAN_ANOMALY></meanElements><tleParameters><EPHEMERIS_TYPE>0</EPHEMERIS_TYPE><CLASSIFICATION_TYPE>U</CLASSIFICATION_TYPE><NORAD_CAT_ID>25112</NORAD_CAT_ID><ELEMENT_SET_NO>999</ELEMENT_SET_NO><REV_AT_EPOCH>37202</REV_AT_EPOCH><BSTAR>.61356E-3</BSTAR><MEAN_MOTION_DOT>.1891E-4</MEAN_MOTION_DOT><MEAN_MOTION_DDOT>0</MEAN_MOTION_DDOT></tleParameters></data></segment></body></omm>
<omm id="CCSDS_OMM_VERS" version="2.0">
<header><CREATION_DATE/><ORIGINATOR/></header><body><segment><metadata><OBJECT_NAME>ORBCOMM FM10 [-]</OBJECT_NAME><OBJECT_ID>1997-084B</OBJECT_ID><CENTER_NAME>EARTH</CENTER_NAME><REF_FRAME>TEME</REF_FRAME><TIME_SYSTEM>UTC</TIME_SYSTEM><MEAN_ELEMENT_THEORY>SGP4</MEAN_ELEMENT_THEORY></metadata><data><meanElements><EPOCH>2024-02-23T12:17:24.364320</EPOCH><MEAN_MOTION>14.41980226</MEAN_MOTION><ECCENTRICITY>.0005756</ECCENTRICITY><INCLINATION>45.0153</INCLINATION><RA_OF_ASC_NODE>145.4151</RA_OF_ASC_NODE><ARG_OF_PERICENTER>298.4216</ARG_OF_PERICENTER><MEAN_ANOMALY>61.6054</MEAN_ANOMALY></meanElements><tleParameters><EPHEMERIS_TYPE>0</EPHEMERIS_TYPE><CLASSIFICATION_TYPE>U</CLASSIFICATION_TYPE><NORAD_CAT_ID>25113</NORAD_CAT_ID><ELEMENT_SET_NO>999</ELEMENT_SET_NO><REV_AT_EPOCH>54719</REV_AT_EPOCH><BSTAR>.61066E-3</BSTAR><MEAN_MOTION_DOT>.1878E-4</MEAN_MOTION_DOT><MEAN_MOTION_DDOT>0</MEAN_MOTION_DDOT></tleParameters></data></segment></body></omm>
<omm id="CCSDS_OMM_VERS" version="2.0">
<header><CREATION_DATE/><ORIGINATOR/></header><body><segment><metadata><OBJECT_NAME>ORBCOMM FM11 [+]</OBJECT_NAME><OBJECT_ID>1997-084C</OBJECT_ID><CENTER_NAME>EARTH</CENTER_NAME><REF_FRAME>TEME</REF_FRAME><TIME_SYSTEM>UTC</TIME_SYSTEM><MEAN_ELEMENT_THEORY>SGP4</MEAN_ELEMENT_THEORY></metadata><data><meanElements><EPOCH>2024-02-23T12:35:19.057632</EPOCH><MEAN_MOTION>14.41867643</MEAN_MOTION><ECCENTRICITY>.0006498</ECCENTRICITY><INCLINATION>45.0139</INCLINATION><RA_OF_ASC_NODE>145.3644</RA_OF_ASC_NODE><ARG_OF_PERICENTER>300.8568</ARG_OF_PERICENTER><MEAN_ANOMALY>59.1643</MEAN_ANOMALY></meanElements><tleParameters><EPHEMERIS_TYPE>0</EPHEMERIS_TYPE><CLASSIFICATION_TYPE>U</CLASSIFICATION_TYPE><NORAD_CAT_ID>25114</NORAD_CAT_ID><ELEMENT_SET_NO>999</ELEMENT_SET_NO><REV_AT_EPOCH>37216</REV_AT_EPOCH><BSTAR>.62069E-3</BSTAR><MEAN_MOTION_DOT>.1907E-4</MEAN_MOTION_DOT><MEAN_MOTION_DDOT>0</MEAN_MOTION_DDOT></tleParameters></data></segment></body></omm>
<omm id="CCSDS_OMM_VERS" version="2.0">
<header><CREATION_DATE/><ORIGINATOR/></header><body><segment><metadata><OBJECT_NAME>ORBCOMM FM12 [-]</OBJECT_NAME><OBJECT_ID>1997-084D</OBJECT_ID><CENTER_NAME>EARTH</CENTER_NAME><REF_FRAME>TEME</REF_FRAME><TIME_SYSTEM>UTC</TIME_SYSTEM><MEAN_ELEMENT_THEORY>SGP4</MEAN_ELEMENT_THEORY></metadata><data><meanElements><EPOCH>2024-02-23T13:14:39.869376</EPOCH><MEAN_MOTION>14.41841861</MEAN_MOTION><ECCENTRICITY>.0005521</ECCENTRICITY><INCLINATION>45.0145</INCLINATION><RA_OF_ASC_NODE>144.9053</RA_OF_ASC_NODE><ARG_OF_PERICENTER>298.9926</ARG_OF_PERICENTER><MEAN_ANOMALY>61.0370</MEAN_ANOMALY></meanElements><tleParameters><EPHEMERIS_TYPE>0</EPHEMERIS_TYPE><CLASSIFICATION_TYPE>U</CLASSIFICATION_TYPE><NORAD_CAT_ID>25115</NORAD_CAT_ID><ELEMENT_SET_NO>999</ELEMENT_SET_NO><REV_AT_EPOCH>37196</REV_AT_EPOCH><BSTAR>.67626E-3</BSTAR><MEAN_MOTION_DOT>.2089E-4</MEAN_MOTION_DOT><MEAN_MOTION_DDOT>0</MEAN_MOTION_DDOT></tleParameters></data></segment></body></omm>
<omm id="CCSDS_OMM_VERS" version="2.0">
<header><CREATION_DATE/><ORIGINATOR/></header><body><segment><metadata><OBJECT_NAME>ORBCOMM FM09 [-]</OBJECT_NAME><OBJECT_ID>1997-084E</OBJECT_ID><CENTER_NAME>EARTH</CENTER_NAME><REF_FRAME>TEME</REF_FRAME><TIME_SYSTEM>UTC</TIME_SYSTEM><MEAN_ELEMENT_THEORY>SGP4</MEAN_ELEMENT_THEORY></metadata><data><meanElements><EPOCH>2024-02-23T13:28:23.172384</EPOCH><MEAN_MOTION>14.41808123</MEAN_MOTION><ECCENTRICITY>.0006979</ECCENTRICITY><INCLINATION>45.0147</INCLINATION><RA_OF_ASC_NODE>145.5247</RA_OF_ASC_NODE><ARG_OF_PERICENTER>289.5760</ARG_OF_PERICENTER><MEAN_ANOMALY>70.4336</MEAN_ANOMALY></meanElements><tleParameters><EPHEMERIS_TYPE>0</EPHEMERIS_TYPE><CLASSIFICATION_TYPE>U</CLASSIFICATION_TYPE><NORAD_CAT_ID>25116</NORAD_CAT_ID><ELEMENT_SET_NO>999</ELEMENT_SET_NO><REV_AT_EPOCH>37217</REV_AT_EPOCH><BSTAR>.69292E-3</BSTAR><MEAN_MOTION_DOT>.2143E-4</MEAN_MOTION_DOT><MEAN_MOTION_DDOT>0</MEAN_MOTION_DDOT></tleParameters></data></segment></body></omm>

</ndm>
